EUTELSAT 139 WEST A     
1 28187U 04008A   26013.53130972  .00000087  00000+0  00000+0 0  9993
2 28187   5.4330  73.8770 0019385 202.9205 248.4698  1.00554299 79801
EUTELSAT 174A           
1 28924U 05052A   26014.90803677  .00000024  00000+0  00000+0 0  9994
2 28924   3.8299  78.4577 0006253 219.0392 317.7932  1.00269480 50791
EUTELSAT 33F            
1 29270U 06032A   26015.09412330  .00000173  00000+0  00000+0 0  9996
2 29270   1.2663  84.0667 0003394 217.7191 239.7080  1.00272964 45771
EUTELSAT HOTBIRD 13C    
1 33459U 08065A   26015.16332281 -.00000267  00000+0  00000+0 0  9997
2 33459   2.5571  81.0540 0002992 222.5040 179.5431  1.00271546 45815
EUTELSAT 36B            
1 36101U 09065A   26015.17614384  .00000130  00000+0  00000+0 0  9991
2 36101   0.1061  66.8581 0005324 231.1070 290.5867  1.00274591 59171
EUTELSAT KA-SAT 9A      
1 37258U 10069A   26015.08935661  .00000081  00000+0  00000+0 0  9990
2 37258   0.0493 345.5349 0002052 192.6318 337.5138  1.00275111 42470
EUTELSAT 7 WEST A       
1 37816U 11051A   26015.18435536 -.00000042  00000+0  00000+0 0  9997
2 37816   0.0617   1.5636 0004065 236.8730 295.2481  1.00271799 52347
EUTELSAT 16A            
1 37836U 11057A   26015.16207038  .00000123  00000+0  00000+0 0  9996
2 37836   0.0554 350.3562 0005644 305.7234 252.8989  1.00275112  5793
